#send KCVS 102120Z AUTO 23035G52KT 8SM FEW011 FEW170 SCT210 26/M12 A2941 RMK AO2 SLP909 $
#send TAF KCVS 101800Z 1018/1200 23030G40KT 9999 FEW200 QNH2948INS 
#send BECMG 1018/1019 24035G50KT 6000 BLDU SKC 530009 QNH2941INS 
#send BECMG 1020/1021 24035G55KT 4000 BLDU SKC 560009 QNH2941INS 
#send BECMG 1101/1102 28030G40KT 9000 BLDU SKC 530009 QNH2954INS 
#send BECMG 1104/1105 27020G30KT 9999 NSW FEW150 520009 QNH2959INS 
#send BECMG 1106/1107 27015G25KT 9999 SCT120 QNH2959INS 
#send BECMG 1109/1110 34010G15KT 9999 SCT080 QNH2961INS 
#send BECMG 1113/1114 34008KT 9999 BKN080 QNH2966INS TX25/1021Z TN11/1113Z
